From: horizons@ssd.jpl.nasa.gov (Horizons Ephemeris System)
Subject: [Horizons] SMALL BODY #C(500@10)_T(197P/LINEAR) (1/1)
Date: March 1, 2021 at 1:23:00 PM PST

Automated mail xmit by MAIL_REQUEST, PID= 2301 Mon Mar  1 13:22:59 2021
++++++++++++++++++++++++++++++++ (part 1 of 1)  +++++++++++++++++++++++++++++++
*******************************************************************************
JPL/HORIZONS                     197P/LINEAR               2021-Mar-01 13:22:59
Rec #:90001103 (+COV) Soln.date: 2020-Nov-11_11:13:14    # obs: 323 (2003-2013)

IAU76/J2000 helio. ecliptic osc. elements (au, days, deg., period=Julian yrs):

 EPOCH=  2453966.5 ! 2006-Aug-19.0000000 (TDB)    RMSW= n.a.
  EC= .6299222172254441   QR= 1.06118644000549    TP= 2454605.4989202293
  OM= 66.39570294129254   W= 188.7502286463079    IN= 25.55595010483065
  A= 2.867468649562094    MA= 230.2951605082511   ADIST= 4.673750859118699
  PER= 4.8557490284523    N= .202981307           ANGMOM= .022623549
  DAN= 4.58296            DDN= 1.06598            L= 254.3012555
  B= -3.7628312           MOID= .0519932          TP= 2008-May-18.9989202293

Comet physical (GM= km^3/s^2; RAD= km):
  GM= n.a.                RAD= n.a.
  M1=  18.2     M2=  20.1     k1=  6.75   k2=  5.      PHCOF=  .030

Comet non-gravitational force model (AMRAT=m^2/kg;A1-A3=au/d^2;DT=days;R0=au):
  AMRAT=  0.                                      DT=  0.
  A1= -5.21928537637E-11  A2= 1.683771726675E-11  A3= 9.0566361323E-11
Standard model:
  ALN=  .1112620426   NK=  4.6142   NM=  2.15     NN=  5.093    R0=  2.808

COMET comments 
1: soln ref.= JPL#47, data arc: 2003-05-23 to 2013-09-25
2: k1=6.75, k2=5., phase coef.=0.03;
*******************************************************************************


*******************************************************************************
Ephemeris / MAIL_REQUEST Mon Mar  1 13:22:59 2021 Pasadena, USA  / Horizons
*******************************************************************************
Target body name: 197P/LINEAR                     {source: JPL#47}
Center body name: Sun (10)                        {source: DE431}
Center-site name: BODY CENTER
*******************************************************************************
Start time      : A.D. 1990-Jan-01 00:00:00.0000 TDB
Stop  time      : A.D. 2020-Dec-31 00:00:00.0000 TDB
Step-size       : 10080 minutes
*******************************************************************************
Center geodetic : 0.00000000,0.00000000,0.0000000 {E-lon(deg),Lat(deg),Alt(km)}
Center cylindric: 0.00000000,0.00000000,0.0000000 {E-lon(deg),Dxy(km),Dz(km)}
Center radii    : 696000.0 x 696000.0 x 696000.0 k{Equator, meridian, pole}    
Small perturbers: Yes                             {source: SB431-N16}
Output units    : AU-D
Output type     : GEOMETRIC cartesian states
Output format   : 6 (LT, range, and range-rate)
Reference frame : Ecliptic of J2000.0
*******************************************************************************
Initial IAU76/J2000 heliocentric ecliptic osculating elements (au, days, deg.):
 EPOCH=  2453966.5 ! 2006-Aug-19.0000000 (TDB)    RMSW= n.a.                  
  EC= .6299222172254441   QR= 1.06118644000549    TP= 2454605.4989202293      
  OM= 66.39570294129254   W= 188.7502286463079    IN= 25.55595010483065       
 Equivalent ICRF heliocentric equatorial cartesian coordinates (au, au/d):
  X= 1.276496038712152E-01  Y= 3.671708563913610E+00  Z= 2.436171011836102E+00
 VX=-4.774659044968913E-03 VY=-2.817741306015899E-03 VZ= 5.661024196468632E-04
Comet physical (GM= km^3/s^2; RAD= km):                                        
  GM= n.a.                RAD= n.a.                                           
  M1=  18.2     M2=  20.1     k1=  6.75   k2=  5.      PHCOF=  .030           
Comet non-gravitational force model (AMRAT=m^2/kg;A1-A3=au/d^2;DT=days;R0=au): 
  AMRAT=  0.                                      DT=  0.                     
  A1= -5.21928537637E-11  A2= 1.683771726675E-11  A3= 9.0566361323E-11        
Standard model:                                                               
  ALN=  .1112620426   NK=  4.6142   NM=  2.15     NN=  5.093    R0=  2.808    
*******************************************************************************
           JDTDB,            Calendar Date (TDB),                     LT,                     RG,                     RR,
**************************************************************************************************************************
$$SOE
2448508.500000000, A.D. 1991-Sep-09 00:00:00.0000,  2.574956469649172E-02,  4.458398920895647E+00, -1.906297178249457E-03,
2448515.500000000, A.D. 1991-Sep-16 00:00:00.0000,  2.567126462633857E-02,  4.444841684010611E+00, -1.967239026856805E-03,
2448522.500000000, A.D. 1991-Sep-23 00:00:00.0000,  2.559049587393600E-02,  4.430857008044314E+00, -2.028423723118448E-03,
2448529.500000000, A.D. 1991-Sep-30 00:00:00.0000,  2.550724847326256E-02,  4.416443167433624E+00, -2.089858947662268E-03,
2448536.500000000, A.D. 1991-Oct-07 00:00:00.0000,  2.542151211399934E-02,  4.401598377002166E+00, -2.151553787312350E-03,
2448543.500000000, A.D. 1991-Oct-14 00:00:00.0000,  2.533327611409351E-02,  4.386320787209828E+00, -2.213517420639230E-03,
2448550.500000000, A.D. 1991-Oct-21 00:00:00.0000,  2.524252942424039E-02,  4.370608484928807E+00, -2.275758844903583E-03,
2448557.500000000, A.D. 1991-Oct-28 00:00:00.0000,  2.514926063334358E-02,  4.354459494389006E+00, -2.338286981174873E-03,
2448564.500000000, A.D. 1991-Nov-04 00:00:00.0000,  2.505345796934825E-02,  4.337871777322322E+00, -2.401110779719958E-03,
2448571.500000000, A.D. 1991-Nov-11 00:00:00.0000,  2.495510929635749E-02,  4.320843232463337E+00, -2.464239303589821E-03,
2448578.500000000, A.D. 1991-Nov-18 00:00:00.0000,  2.485420210812306E-02,  4.303371694422299E+00, -2.527681832967504E-03,
2448585.500000000, A.D. 1991-Nov-25 00:00:00.0000,  2.475072351600680E-02,  4.285454931600681E+00, -2.591448040737401E-03,
2448592.500000000, A.D. 1991-Dec-02 00:00:00.0000,  2.464466022918142E-02,  4.267090642763077E+00, -2.655548149406075E-03,
2448599.500000000, A.D. 1991-Dec-09 00:00:00.0000,  2.453599854075322E-02,  4.248276454634414E+00, -2.719992270960338E-03,
2448606.500000000, A.D. 1991-Dec-16 00:00:00.0000,  2.442472436719410E-02,  4.229009928727390E+00, -2.784788763340675E-03,
2448613.500000000, A.D. 1991-Dec-23 00:00:00.0000,  2.431082330569772E-02,  4.209288571273392E+00, -2.849945631909645E-03,
2448620.500000000, A.D. 1991-Dec-30 00:00:00.0000,  2.419428059159294E-02,  4.189109825848864E+00, -2.915472826496087E-03,
2448627.500000000, A.D. 1992-Jan-06 00:00:00.0000,  2.407508103348226E-02,  4.168471062144858E+00, -2.981381258859204E-03,
2448634.500000000, A.D. 1992-Jan-13 00:00:00.0000,  2.395320899646790E-02,  4.147369573062744E+00, -3.047681903040895E-03,
2448641.500000000, A.D. 1992-Jan-20 00:00:00.0000,  2.382864840242412E-02,  4.125802574761348E+00, -3.114385724721788E-03,
2448648.500000000, A.D. 1992-Jan-27 00:00:00.0000,  2.370138272856202E-02,  4.103767206408456E+00, -3.181503769059012E-03,
2448655.500000000, A.D. 1992-Feb-03 00:00:00.0000,  2.357139500281073E-02,  4.081260529381087E+00, -3.249047225682997E-03,
2448662.500000000, A.D. 1992-Feb-10 00:00:00.0000,  2.343866779688698E-02,  4.058279526065543E+00, -3.317027484686147E-03,
2448669.500000000, A.D. 1992-Feb-17 00:00:00.0000,  2.330318321645666E-02,  4.034821098153910E+00, -3.385456234730054E-03,
2448676.500000000, A.D. 1992-Feb-24 00:00:00.0000,  2.316492288556958E-02,  4.010882063949050E+00, -3.454345647755080E-03,
2448683.500000000, A.D. 1992-Mar-02 00:00:00.0000,  2.302386792515589E-02,  3.986459154641340E+00, -3.523708373040830E-03,
2448690.500000000, A.D. 1992-Mar-09 00:00:00.0000,  2.287999895401667E-02,  3.961549014480220E+00, -3.593556253744571E-03,
2448697.500000000, A.D. 1992-Mar-16 00:00:00.0000,  2.273329615356636E-02,  3.936148211983968E+00, -3.663899216140918E-03,
2448704.500000000, A.D. 1992-Mar-23 00:00:00.0000,  2.258373930189255E-02,  3.910253245836991E+00, -3.734747789831587E-03,
2448711.500000000, A.D. 1992-Mar-30 00:00:00.0000,  2.243130771643038E-02,  3.883860534964193E+00, -3.806114065075351E-03,
2448718.500000000, A.D. 1992-Apr-06 00:00:00.0000,  2.227598021665112E-02,  3.856966412070702E+00, -3.878010411072760E-03,
2448725.500000000, A.D. 1992-Apr-13 00:00:00.0000,  2.211773512664576E-02,  3.829567124089222E+00, -3.950448942125973E-03,
2448732.500000000, A.D. 1992-Apr-20 00:00:00.0000,  2.195655028645937E-02,  3.801658834142495E+00, -4.023441495812175E-03,
2448739.500000000, A.D. 1992-Apr-27 00:00:00.0000,  2.179240306261948E-02,  3.773237623366239E+00, -4.096999662154271E-03,
2448746.500000000, A.D. 1992-May-04 00:00:00.0000,  2.162527035795578E-02,  3.744299492609390E+00, -4.171134790522511E-03,
2448753.500000000, A.D. 1992-May-11 00:00:00.0000,  2.145512862115334E-02,  3.714840364088176E+00, -4.245858003856587E-03,
2448760.500000000, A.D. 1992-May-18 00:00:00.0000,  2.128195385458638E-02,  3.684856082742491E+00, -4.321180281362042E-03,
2448767.500000000, A.D. 1992-May-25 00:00:00.0000,  2.110572161683508E-02,  3.654342416671685E+00, -4.397112618211233E-03,
2448774.500000000, A.D. 1992-Jun-01 00:00:00.0000,  2.092640702537651E-02,  3.623295057600459E+00, -4.473665655423782E-03,
2448781.500000000, A.D. 1992-Jun-08 00:00:00.0000,  2.074398480513300E-02,  3.591709629284775E+00, -4.550847832524650E-03,
2448788.500000000, A.D. 1992-Jun-15 00:00:00.0000,  2.055842939170714E-02,  3.559581705386439E+00, -4.628665429652659E-03,
2448795.500000000, A.D. 1992-Jun-22 00:00:00.0000,  2.036971496341607E-02,  3.526906815019652E+00, -4.707125134959632E-03,
2448802.500000000, A.D. 1992-Jun-29 00:00:00.0000,  2.017781542201670E-02,  3.493680439413704E+00, -4.786233690861746E-03,
2448809.500000000, A.D. 1992-Jul-06 00:00:00.0000,  1.998270441741591E-02,  3.459898016191399E+00, -4.865996688979574E-03,
